ONEWEB-0624             
1 55165U 23004AB  23279.81833222  .00000325  00000+0  86870-3 0  9994
2 55165  87.9003 186.2937 0002176  79.6823 280.4550 13.12476763 38935
ONEWEB-0625             
1 55166U 23004AC  23279.79844557 -.00000031  00000+0 -11208-3 0  9994
2 55166  87.9234 201.5200 0002206  80.3475 279.7906 13.17647448 37943
ONEWEB-0626             
1 55167U 23004AD  23279.78579914  .00000802  00000+0  20325-2 0  9999
2 55167  87.9248 201.5097 0001575  58.3535 301.7750 13.17646237 37941
ONEWEB-0627             
1 55168U 23004AE  23279.85538365  .00000052  00000+0  10119-3 0  9991
2 55168  87.9231 201.5138 0001297  99.0717 261.0561 13.17647575 37950
ONEWEB-0628             
1 55169U 23004AF  23279.79927469  .00000030  00000+0  48982-4 0  9998
2 55169  87.8992 186.3889 0001739  94.0318 266.1009 13.12439979 38912
ONEWEB-0629             
1 55170U 23004AG  23279.84907905  .00000803  00000+0  20349-2 0  9992
2 55170  87.9246 201.4976 0002088  90.9628 269.1742 13.17644727 37954
ONEWEB-0631             
1 55171U 23004AH  23279.91668981 -.00910465  00000+0 -56233+0 0  9993
2 55171  87.0103 174.7855 0004633  78.0566  43.6446 14.08382552  5487
ONEWEB-0709             
1 55172U 23004AJ  23279.89853239  .00001277  00000+0  35688-2 0  9997
2 55172  87.8995 216.6264 0001619  49.2169 310.9099 13.11407300 36878
